      2.10          N: GNSS NAV DATA                        RINEX VERSION / TYPE
fic2rin                                 02/19/2019 00:18:32 PGM / RUN BY / DATE
                                                            END OF HEADER
28 19  2 18  9 59 44.0 7.648384198546e-04 6.821210263297e-13 0.000000000000e+00
    3.900000000000e+01 6.993750000000e+01 3.590863859607e-09 1.740648919003e+00
    3.593042492867e-06 1.926914229989e-02 1.312606036663e-05 5.153702775955e+03
    1.223840000000e+05 3.036111593246e-07 3.048127232974e+00-3.930181264877e-07
    9.835704548231e-01 1.334375000000e+02-1.473200422814e+00-7.376021526618e-09
   -8.786080261224e-11 1.000000000000e+00 2.041000000000e+03 0.000000000000e+00
    2.400000000000e+00 0.000000000000e+00-1.117587089539e-08 3.900000000000e+01
    1.152000000000e+05 4.000000000000e+00
 2 19  2 18 10  0  0.0-1.429314725101e-04-9.890754881781e-12 0.000000000000e+00
    4.500000000000e+01-9.393750000000e+01 5.219860285276e-09-9.612538033707e-01
   -4.490837454796e-06 1.889933727216e-02 2.479180693626e-06 5.153650527954e+03
    1.224000000000e+05-2.440065145493e-07-1.291106224282e+00 3.073364496231e-07
    9.532676779851e-01 3.306250000000e+02-1.771583591602e+00-8.883227164925e-09
   -2.107230631757e-10 1.000000000000e+00 2.041000000000e+03 0.000000000000e+00
    2.400000000000e+00 0.000000000000e+00-2.048909664154e-08 4.500000000000e+01
    1.152000000000e+05 4.000000000000e+00
 1 19  2 18 10  0  0.0-1.654555089772e-04-7.048583938740e-12 0.000000000000e+00
    6.100000000000e+01-1.100312500000e+02 4.564833000760e-09-1.268259102642e+00
   -5.688518285751e-06 8.405325235799e-03 2.035871148109e-06 5.153657466888e+03
    1.224000000000e+05 2.793967723846e-07-1.224388105868e+00-2.235174179077e-08
    9.741939969646e-01 3.451875000000e+02 6.836773117328e-01-8.366062765809e-09
   -2.700112470522e-10 1.000000000000e+00 2.041000000000e+03 0.000000000000e+00
    2.400000000000e+00 0.000000000000e+00 5.587935447693e-09 6.100000000000e+01
    1.152000000000e+05 4.000000000000e+00
 3 19  2 18 10  0  0.0 1.834691502154e-04 1.705302565824e-12 0.000000000000e+00
    6.900000000000e+01-9.512500000000e+01 4.249819879199e-09-2.278054764685e+00
   -4.811212420464e-06 1.909962971695e-03 1.254491508007e-05 5.153584939957e+03
    1.224000000000e+05 6.891787052155e-08-1.818517739878e-01-4.470348358154e-08
    9.628817678677e-01 1.390625000000e+02 6.299879607501e-01-7.775323873449e-09
    1.771502361613e-10 1.000000000000e+00 2.041000000000e+03 0.000000000000e+00
    2.400000000000e+00 0.000000000000e+00 2.328306436539e-09 6.900000000000e+01
    1.152000000000e+05 4.000000000000e+00
 7 19  2 18 10  0  0.0 3.029918298125e-05-7.162270776462e-12 0.000000000000e+00
    3.000000000000e+00-4.381250000000e+01 4.900561270904e-09-1.888743469175e+00
   -2.389773726463e-06 1.223798224237e-02 6.211921572685e-06 5.153598699570e+03
    1.224000000000e+05 6.332993507385e-08 1.927297013279e+00-1.937150955200e-07
    9.558416750310e-01 2.558437500000e+02-2.477661959309e+00-8.077479316579e-09
   -4.853773607725e-10 1.000000000000e+00 2.041000000000e+03 0.000000000000e+00
    2.400000000000e+00 0.000000000000e+00-1.117587089539e-08 3.000000000000e+00
    1.152000000000e+05 4.000000000000e+00
 9 19  2 18 10  0  0.0 4.569115117192e-04-5.343281372916e-12 0.000000000000e+00
    8.000000000000e+00 4.328125000000e+01 4.964492505326e-09 1.267350852879e+00
    2.106651663780e-06 1.449633273296e-03 7.489696145058e-06 5.153727617264e+03
    1.224000000000e+05-5.774199962616e-08 8.503113671329e-01-5.587935447693e-08
    9.524918325480e-01 2.288125000000e+02 1.715134609509e+00-8.209984835965e-09
    5.453798601174e-10 1.000000000000e+00 2.041000000000e+03 0.000000000000e+00
    2.400000000000e+00 0.000000000000e+00 1.396983861923e-09 8.000000000000e+00
    1.152000000000e+05 4.000000000000e+00
 6 19  2 18 10  0  0.0 2.731685526669e-04-8.299139153678e-12 0.000000000000e+00
    1.600000000000e+01-1.001562500000e+02 4.548403744987e-09-1.072400866738e+00
   -5.304813385010e-06 1.478102873079e-03 2.747401595116e-06 5.153798400879e+03
    1.224000000000e+05-5.215406417847e-08-1.232679703177e+00-7.264316082001e-08
    9.738564520245e-01 3.358125000000e+02-1.155947101517e+00-8.385706441190e-09
   -2.600108304947e-10 1.000000000000e+00 2.041000000000e+03 0.000000000000e+00
    2.400000000000e+00 0.000000000000e+00 4.656612873077e-09 1.600000000000e+01
    1.152000000000e+05 4.000000000000e+00
 8 19  2 18 10  0  0.0-1.331930980086e-04-1.364242052659e-12 0.000000000000e+00
    3.700000000000e+01 1.357187500000e+02 4.440542109260e-09 1.226647201020e+00
    7.037073373795e-06 4.284329479560e-03 3.557652235031e-06 5.153699642181e+03
    1.224000000000e+05 2.048909664154e-08-2.291141422711e+00-1.862645149231e-08
    9.701139316078e-01 3.132812500000e+02-3.460033832183e-01-8.349633510036e-09
    4.228747572882e-10 1.000000000000e+00 2.041000000000e+03 0.000000000000e+00
    2.400000000000e+00 0.000000000000e+00 5.122274160385e-09 3.700000000000e+01
    1.152000000000e+05 4.000000000000e+00
 5 19  2 18 10  0  0.0 1.101754605770e-06 1.136868377216e-13 0.000000000000e+00
    6.600000000000e+01-8.603125000000e+01 4.598762985509e-09 1.670403172597e+00
   -4.386529326439e-06 5.564114544541e-03 1.298636198044e-05 5.153637680054e+03
    1.224000000000e+05-1.303851604462e-07-2.073284938011e-01 2.607703208923e-08
    9.497494112066e-01 1.265000000000e+02 7.133006567498e-01-7.981046728346e-09
    1.014327965117e-10 1.000000000000e+00 2.041000000000e+03 0.000000000000e+00
    2.400000000000e+00 0.000000000000e+00-1.117587089539e-08 6.600000000000e+01
    1.152000000000e+05 4.000000000000e+00
23 19  2 18 10  0  0.0-1.968406140804e-04 1.250555214938e-12 0.000000000000e+00
    7.000000000000e+00 4.418750000000e+01 5.303078037343e-09-5.062775880594e-01
    2.352520823479e-06 1.279912842438e-02 7.377937436104e-06 5.153631263733e+03
    1.224000000000e+05-2.980232238770e-08 8.461373283075e-01 1.788139343262e-07
    9.433088324392e-01 2.265000000000e+02-2.296948933920e+00-8.563213835085e-09
    5.053781938875e-10 1.000000000000e+00 2.041000000000e+03 0.000000000000e+00
    2.400000000000e+00 0.000000000000e+00-2.002343535423e-08 7.000000000000e+00
    1.152000000000e+05 4.000000000000e+00
22 19  2 18 10  0  0.0-6.477436982095e-04-8.071765478235e-12 0.000000000000e+00
    1.600000000000e+01-1.033437500000e+02 5.134856744537e-09 1.367518455661e-01
   -5.260109901428e-06 7.178554194979e-03 1.245178282261e-05 5.153582351685e+03
    1.224000000000e+05-7.264316082001e-08-2.512564478281e-01-4.097819328308e-08
    9.272270924902e-01 1.269062500000e+02-1.415709111590e+00-8.351419298707e-09
    1.125046862718e-10 1.000000000000e+00 2.041000000000e+03 0.000000000000e+00
    2.400000000000e+00 0.000000000000e+00-1.816079020500e-08 1.600000000000e+01
    1.152000000000e+05 4.000000000000e+00
27 19  2 18 10  0  0.0-6.997166201472e-05-7.389644451905e-12 0.000000000000e+00
    1.500000000000e+01 1.386250000000e+02 4.290893018632e-09 9.160334007194e-01
    7.135793566704e-06 6.688479334116e-03 3.848224878311e-06 5.153638698578e+03
    1.224000000000e+05-9.313225746155e-09-2.280559056610e+00 3.539025783539e-08
    9.783670512462e-01 3.132187500000e+02 4.290574630970e-01-8.366419923543e-09
    4.143029716675e-10 1.000000000000e+00 2.041000000000e+03 0.000000000000e+00
    2.400000000000e+00 0.000000000000e+00 1.396983861923e-09 1.500000000000e+01
    1.152000000000e+05 4.000000000000e+00
16 19  2 18 10  0  0.0-1.999735832214e-05-2.501110429876e-12 0.000000000000e+00
    9.800000000000e+01 8.940625000000e+01 3.500502952856e-09 1.777293344773e+00
    4.714354872704e-06 1.060193765443e-02 1.434236764908e-05 5.153789777756e+03
    1.224000000000e+05-1.620501279831e-07 3.044111278539e+00 5.401670932770e-08
    9.846421300913e-01 1.167500000000e+02 5.410948452408e-01-7.553171762779e-09
   -2.682254583813e-10 1.000000000000e+00 2.041000000000e+03 0.000000000000e+00
    2.400000000000e+00 0.000000000000e+00-1.071020960808e-08 9.800000000000e+01
    1.152000000000e+05 4.000000000000e+00
24 19  2 18 10  0  0.0-6.231712177396e-05-4.547473508865e-13 0.000000000000e+00
    5.300000000000e+01-3.428125000000e+01 5.412011146273e-09-9.724408374013e-01
   -1.821666955948e-06 8.184075355530e-03 5.943700671196e-06 5.153718009949e+03
    1.224000000000e+05 2.123415470123e-07 1.862985993439e+00 8.940696716309e-08
    9.389452243003e-01 2.526250000000e+02 5.960746947779e-01-8.501782704804e-09
   -5.943104697023e-10 1.000000000000e+00 2.041000000000e+03 0.000000000000e+00
    2.400000000000e+00 0.000000000000e+00 2.793967723846e-09 5.300000000000e+01
    1.152000000000e+05 4.000000000000e+00
13 19  2 18 10  0  0.0-7.453979924321e-05 1.250555214938e-12 0.000000000000e+00
    8.300000000000e+01 3.921875000000e+01 4.864131182016e-09-1.939899081155e-01
    2.147629857063e-06 3.713270416483e-03 6.180256605148e-06 5.153655914307e+03
    1.224000000000e+05-3.725290298462e-09 9.860721032554e-01 5.587935447693e-09
    9.678832185296e-01 2.618125000000e+02 1.366387576099e+00-8.267130073437e-09
    4.203746531488e-10 1.000000000000e+00 2.041000000000e+03 0.000000000000e+00
    2.400000000000e+00 0.000000000000e+00-1.117587089539e-08 8.300000000000e+01
    1.152000000000e+05 4.000000000000e+00
14 19  2 18 10  0  0.0-9.117880836129e-05 6.821210263297e-13 0.000000000000e+00
    4.800000000000e+01 3.800000000000e+01 4.995565228201e-09 6.658483487421e-01
    2.076849341393e-06 1.016036653891e-02 7.085502147675e-06 5.153663833618e+03
    1.224000000000e+05-9.126961231232e-08 9.423326155016e-01 4.097819328308e-08
    9.604908447790e-01 2.458437500000e+02-1.947952496383e+00-8.402492854697e-09
    4.339466470482e-10 1.000000000000e+00 2.041000000000e+03 0.000000000000e+00
    2.400000000000e+00 0.000000000000e+00-9.778887033463e-09 4.800000000000e+01
    1.152000000000e+05 4.000000000000e+00
